{"type": "FeatureCollection", "features": [{"type": "Feature", "geometry": {"type": "Point", "coordinates": [-91.89159, 41.813857]}, "properties": {"facName": "Amana Society Farms Digester", "CityName": "Amana", "countyName": "Iowa", "FacilityType": "Farm", "Address": null, "ZipCode": "52203", "FoodWaste": "Yes", "Feedstock": "animal manure - cattle/dairy cow; Other Feedstocks", "Source": "AgStar", "ADid": "AD4", "LocApprox": true}}, {"type": "Feature", "geometry": {"type": "Point", "coordinates": [-92.015979, 41.640938]}, "properties": {"facName": "Boland Farm Digester", "CityName": "Williamsburg", "countyName": "Iowa", "FacilityType": "Farm", "Address": null, "ZipCode": "52361", "FoodWaste": null, "Feedstock": "animal manure - swine", "Source": "AgStar", "ADid": "AD456", "LocApprox": true}}, {"type": "Feature", "geometry": {"type": "Point", "coordinates": [-96.338127, 43.193752]}, "properties": {"facName": "Gevo NW Iowa RNG", "CityName": "Northwest Iowa", "countyName": "Sioux", "FacilityType": "Farm", "Address": null, "ZipCode": "51247", "FoodWaste": null, "Feedstock": "animal manure - cattle/dairy cow", "Source": null, "ADid": "AD295", "LocApprox": true}}, {"type": "Feature", "geometry": {"type": "Point", "coordinates": [-92.538439, 43.386853]}, "properties": {"facName": "Linkenmeyer Family Feeders / Link Energy, LLC Digester", "CityName": "Riceville", "countyName": "Howard", "FacilityType": "Farm", "Address": null, "ZipCode": "50466", "FoodWaste": "Yes", "Feedstock": "animal manure - cattle, swine; Other Feedstocks", "Source": "AgStar", "ADid": "AD341", "LocApprox": true}}, {"type": "Feature", "geometry": {"type": "Point", "coordinates": [-93.166386, 42.01809]}, "properties": {"facName": "Marshall Ridge Dairy", "CityName": "State Center", "countyName": "Marshall", "FacilityType": "Farm", "Address": null, "ZipCode": "50247", "FoodWaste": null, "Feedstock": "animal manure - cattle/dairy cow", "Source": "AgStar", "ADid": "AD375", "LocApprox": true}}, {"type": "Feature", "geometry": {"type": "Point", "coordinates": [-96.338127, 43.193752]}, "properties": {"facName": "Meadowvale Dairy Digester", "CityName": "Rock Valley", "countyName": "Sioux", "FacilityType": "Farm", "Address": null, "ZipCode": "51247", "FoodWaste": null, "Feedstock": "animal manure - cattle/dairy cow", "Source": "AgStar", "ADid": "AD349", "LocApprox": true}}, {"type": "Feature", "geometry": {"type": "Point", "coordinates": [-93.764729, 41.033119]}, "properties": {"facName": "Monarch Bioenergy 'Ponderosa'", "CityName": "Osceola", "countyName": "Clarke", "FacilityType": "Farm", "Address": null, "ZipCode": "50213", "FoodWaste": null, "Feedstock": "animal manure - cattle/dairy cow", "Source": null, "ADid": "AD304", "LocApprox": true}}, {"type": "Feature", "geometry": {"type": "Point", "coordinates": [-96.215338, 43.294885]}, "properties": {"facName": "Rock River Jerseys Digester", "CityName": "Doon", "countyName": "Lyon", "FacilityType": "Farm", "Address": null, "ZipCode": "51235", "FoodWaste": null, "Feedstock": "animal manure - cattle/dairy cow", "Source": "AgStar", "ADid": "AD115", "LocApprox": true}}, {"type": "Feature", "geometry": {"type": "Point", "coordinates": [-90.869055, 41.720929]}, "properties": {"facName": "Sievers Family Farms Digester - AgriReNew", "CityName": "New Liberty", "countyName": "Scott", "FacilityType": "Farm", "Address": null, "ZipCode": "52765", "FoodWaste": "Yes", "Feedstock": "animal manure - cattle/dairy cow; Agricultural Residues; Food Processing Wastes; Slaughterhouses; Other Feedstocks", "Source": "AgStar", "ADid": "AD290", "LocApprox": true}}, {"type": "Feature", "geometry": {"type": "Point", "coordinates": [-92.009278, 42.777552]}, "properties": {"facName": "Top Deck Holsteins Digester", "CityName": "Westgate", "countyName": "Fayette", "FacilityType": "Farm", "Address": null, "ZipCode": "50681", "FoodWaste": null, "Feedstock": "animal manure - cattle/dairy cow", "Source": "AgStar", "ADid": "AD453", "LocApprox": true}}, {"type": "Feature", "geometry": {"type": "Point", "coordinates": [-93.444377, 42.033498]}, "properties": {"facName": "Verbio Biorefinery", "CityName": "Nevada", "countyName": "Story", "FacilityType": "Farm", "Address": null, "ZipCode": "50201", "FoodWaste": null, "Feedstock": "animal manure - cattle/dairy cow", "Source": null, "ADid": "AD289", "LocApprox": true}}, {"type": "Feature", "geometry": {"type": "Point", "coordinates": [-96.338127, 43.193752]}, "properties": {"facName": "Winding Meadows Dairy Digester", "CityName": "Rock Valley", "countyName": "Sioux", "FacilityType": "Farm", "Address": null, "ZipCode": "51247", "FoodWaste": null, "Feedstock": "animal manure - cattle/dairy cow", "Source": "AgStar", "ADid": "AD350", "LocApprox": true}}, {"type": "Feature", "geometry": {"type": "Point", "coordinates": [-92.28231298, 42.504407]}, "properties": {"facName": "City of Waterloo Anaerobic Lagoon", "CityName": "Waterloo", "countyName": "Black Hawk", "FacilityType": "Stand-Alone", "Address": "2749 Independence Ave", "ZipCode": "50707", "FoodWaste": "Yes", "Feedstock": "Food waste, Crude glycerin, Fats, oils and greases (FOG), Rendering wastes", "Source": "AD Data Collection Project - Stand-Alone", "ADid": "AD576", "LocApprox": false}}, {"type": "Feature", "geometry": {"type": "Point", "coordinates": [-94.24645249, 43.06676205]}, "properties": {"facName": "ALGONA CITY OF STP", "CityName": "Algona", "countyName": "Kossuth", "FacilityType": "Water Resource Recovery Facility", "Address": "801 West McGregor", "ZipCode": "50511", "FoodWaste": null, "Feedstock": "wastewater solids", "Source": "Water Environment Federation- http://www.resourcerecoverydata.org/biogasdata.php", "ADid": "AD601", "LocApprox": false}}, {"type": "Feature", "geometry": {"type": "Point", "coordinates": [-91.28733867, 42.10519602]}, "properties": {"facName": "ANAMOSA WATER and SEWER", "CityName": "Anamosa", "countyName": "Jones", "FacilityType": "Water Resource Recovery Facility", "Address": "1205 WALWORTH AVENUE", "ZipCode": "52205", "FoodWaste": null, "Feedstock": "wastewater solids", "Source": "Water Environment Federation- http://www.resourcerecoverydata.org/biogasdata.php", "ADid": "AD616", "LocApprox": false}}, {"type": "Feature", "geometry": {"type": "Point", "coordinates": [-93.81269075, 43.09090588]}, "properties": {"facName": "BRITT CITY OF STP", "CityName": "Britt", "countyName": "Hancock", "FacilityType": "Water Resource Recovery Facility", "Address": "1001 9th Ave SW.", "ZipCode": "50423", "FoodWaste": null, "Feedstock": "wastewater solids", "Source": "Water Environment Federation- http://www.resourcerecoverydata.org/biogasdata.php", "ADid": "AD712", "LocApprox": false}}, {"type": "Feature", "geometry": {"type": "Point", "coordinates": [-91.1002473, 40.79803849]}, "properties": {"facName": "BURLINGTON, CITY OF", "CityName": "Burlington", "countyName": "Des Moines", "FacilityType": "Water Resource Recovery Facility", "Address": "101 South STREET", "ZipCode": "52601", "FoodWaste": null, "Feedstock": "wastewater solids", "Source": "Water Environment Federation- http://www.resourcerecoverydata.org/biogasdata.php", "ADid": "AD737", "LocApprox": false}}, {"type": "Feature", "geometry": {"type": "Point", "coordinates": [-94.84518201, 42.05672253]}, "properties": {"facName": "CARROLL CITY OF STP", "CityName": "Carroll", "countyName": "Carroll", "FacilityType": "Water Resource Recovery Facility", "Address": "1400 E ANTHONY Street", "ZipCode": "51401", "FoodWaste": null, "Feedstock": "wastewater solids", "Source": "Water Environment Federation- http://www.resourcerecoverydata.org/biogasdata.php", "ADid": "AD765", "LocApprox": false}}, {"type": "Feature", "geometry": {"type": "Point", "coordinates": [-92.44222897, 42.53458298]}, "properties": {"facName": "CEDAR FALLS WWTP", "CityName": "Cedar Falls", "countyName": "Black Hawk", "FacilityType": "Water Resource Recovery Facility", "Address": "501 EAST 4TH STREET", "ZipCode": "50613", "FoodWaste": null, "Feedstock": "wastewater solids", "Source": "Water Environment Federation- http://www.resourcerecoverydata.org/biogasdata.php", "ADid": "AD776", "LocApprox": false}}, {"type": "Feature", "geometry": {"type": "Point", "coordinates": [-91.56341718, 41.95779145]}, "properties": {"facName": "CEDAR RAPIDS WWTP", "CityName": "Cedar Rapids", "countyName": "Linn", "FacilityType": "Water Resource Recovery Facility", "Address": "7525 Bertram Road", "ZipCode": "52403", "FoodWaste": null, "Feedstock": "wastewater solids", "Source": "Water Environment Federation- http://www.resourcerecoverydata.org/biogasdata.php", "ADid": "AD778", "LocApprox": false}}, {"type": "Feature", "geometry": {"type": "Point", "coordinates": [-92.87136104, 40.73219099]}, "properties": {"facName": "CENTERVILLE CITY OF STP (EAST)", "CityName": "Centerville", "countyName": "Appanoose", "FacilityType": "Water Resource Recovery Facility", "Address": "312 EAST MAPLE STREET", "ZipCode": "52544", "FoodWaste": null, "Feedstock": "wastewater solids", "Source": "Water Environment Federation- http://www.resourcerecoverydata.org/biogasdata.php", "ADid": "AD781", "LocApprox": false}}, {"type": "Feature", "geometry": {"type": "Point", "coordinates": [-92.871185, 40.73068]}, "properties": {"facName": "Centerville West WWTP", "CityName": "Centerville", "countyName": "Appanoose", "FacilityType": "Water Resource Recovery Facility", "Address": null, "ZipCode": "52544", "FoodWaste": null, "Feedstock": "wastewater solids", "Source": "Water Environment Federation- http://www.resourcerecoverydata.org/biogasdata.php", "ADid": "AD782", "LocApprox": false}}, {"type": "Feature", "geometry": {"type": "Point", "coordinates": [-93.564858, 41.95407701]}, "properties": {"facName": "City of Ames Water Pollution Control Plant", "CityName": "Ames", "countyName": "Story", "FacilityType": "Water Resource Recovery Facility", "Address": "56797 280th St.", "ZipCode": "50010", "FoodWaste": "Yes", "Feedstock": "Wastewater solids, Food waste, Fats, oils and greases (FOG), Food processing industry waste", "Source": "AD Data Collection Project - WRRF", "ADid": "AD615", "LocApprox": false}}, {"type": "Feature", "geometry": {"type": "Point", "coordinates": [-95.30793355, 41.63424123]}, "properties": {"facName": "City of Harlin WWTP", "CityName": "Harlan", "countyName": "Shelby", "FacilityType": "Water Resource Recovery Facility", "Address": "910 MAPLE ROAD", "ZipCode": "51537", "FoodWaste": null, "Feedstock": "wastewater solids", "Source": "Water Environment Federation- http://www.resourcerecoverydata.org/biogasdata.php", "ADid": "AD1070", "LocApprox": false}}, {"type": "Feature", "geometry": {"type": "Point", "coordinates": [-93.45078599, 42.00669998]}, "properties": {"facName": "CITY OF NEVADA SEWAGE TREATMENT PLANT", "CityName": "Nevada", "countyName": "Story", "FacilityType": "Water Resource Recovery Facility", "Address": "457 SOUTH 6TH STREET", "ZipCode": "50201", "FoodWaste": null, "Feedstock": "wastewater solids", "Source": "Water Environment Federation- http://www.resourcerecoverydata.org/biogasdata.php", "ADid": "AD1368", "LocApprox": false}}, {"type": "Feature", "geometry": {"type": "Point", "coordinates": [-93.74794801, 41.018134]}, "properties": {"facName": "CITY OF OSCEOLA SEWAGE TREATMENT PLANT", "CityName": "Osceola", "countyName": "Clarke", "FacilityType": "Water Resource Recovery Facility", "Address": "1986 COUNTRY CLUB ROAD", "ZipCode": "50213", "FoodWaste": null, "Feedstock": "wastewater solids", "Source": "Water Environment Federation- http://www.resourcerecoverydata.org/biogasdata.php", "ADid": "AD1425", "LocApprox": false}}, {"type": "Feature", "geometry": {"type": "Point", "coordinates": [-92.30819597, 42.47335301]}, "properties": {"facName": "City of Waterloo Waste Management Services", "CityName": "Waterloo", "countyName": "Black Hawk", "FacilityType": "Water Resource Recovery Facility", "Address": "3505 EASTON AVENUE", "ZipCode": "50702", "FoodWaste": null, "Feedstock": "wastewater solids", "Source": "Water Environment Federation- http://www.resourcerecoverydata.org/biogasdata.php", "ADid": "AD1775", "LocApprox": false}}, {"type": "Feature", "geometry": {"type": "Point", "coordinates": [-92.45388109, 42.71688492]}, "properties": {"facName": "CITY OF WAVERLY", "CityName": "Waverly", "countyName": "Bremer", "FacilityType": "Water Resource Recovery Facility", "Address": "1401 8TH ST. SE", "ZipCode": "50677", "FoodWaste": null, "Feedstock": "wastewater solids", "Source": "Water Environment Federation- http://www.resourcerecoverydata.org/biogasdata.php", "ADid": "AD1789", "LocApprox": false}}, {"type": "Feature", "geometry": {"type": "Point", "coordinates": [-95.03016365, 40.72288271]}, "properties": {"facName": "CLARINDA CITY OF STP", "CityName": "Clarinda", "countyName": "Page", "FacilityType": "Water Resource Recovery Facility", "Address": "1420 East LaPerla Street", "ZipCode": "51632", "FoodWaste": null, "Feedstock": "wastewater solids", "Source": "Water Environment Federation- http://www.resourcerecoverydata.org/biogasdata.php", "ADid": "AD823", "LocApprox": false}}, {"type": "Feature", "geometry": {"type": "Point", "coordinates": [-90.23059802, 41.80995999]}, "properties": {"facName": "CLINTON WWTP (IA)", "CityName": "Clinton", "countyName": "Clinton", "FacilityType": "Water Resource Recovery Facility", "Address": "1901 Beaver Channel Parkway", "ZipCode": "52732", "FoodWaste": null, "Feedstock": "wastewater solids", "Source": "Water Environment Federation- http://www.resourcerecoverydata.org/biogasdata.php", "ADid": "AD829", "LocApprox": false}}, {"type": "Feature", "geometry": {"type": "Point", "coordinates": [-95.835001, 41.171962]}, "properties": {"facName": "COUNCIL BLUFFS CITY OF STP", "CityName": "Council Bluffs", "countyName": "Pottawattamie", "FacilityType": "Water Resource Recovery Facility", "Address": "18452 APPLEWOOD ROAD", "ZipCode": "51503", "FoodWaste": null, "Feedstock": "wastewater solids", "Source": "Water Environment Federation- http://www.resourcerecoverydata.org/biogasdata.php", "ADid": "AD857", "LocApprox": false}}, {"type": "Feature", "geometry": {"type": "Point", "coordinates": [-94.3908551, 41.04755024]}, "properties": {"facName": "CRESTON CITY WATER TREATMENT PLANT", "CityName": "Creston", "countyName": "Union", "FacilityType": "Water Resource Recovery Facility", "Address": "710 South Lake Shore Drive", "ZipCode": "50801", "FoodWaste": null, "Feedstock": "wastewater solids", "Source": "Water Environment Federation- http://www.resourcerecoverydata.org/biogasdata.php", "ADid": "AD860", "LocApprox": false}}, {"type": "Feature", "geometry": {"type": "Point", "coordinates": [-90.62752497, 41.49213901]}, "properties": {"facName": "Davenport Water Pollution Control Plant", "CityName": "Davenport", "countyName": "Scott", "FacilityType": "Water Resource Recovery Facility", "Address": "2606 S Concord", "ZipCode": "52802", "FoodWaste": "Yes", "Feedstock": "Wastewater solids, Food waste, Rendering wastes", "Source": "AD Data Collection Project - WRRF", "ADid": "AD874", "LocApprox": false}}, {"type": "Feature", "geometry": {"type": "Point", "coordinates": [-91.74735402, 43.29608802]}, "properties": {"facName": "DECORAH CITY OF STP", "CityName": "Decorah", "countyName": "Winneshiek", "FacilityType": "Water Resource Recovery Facility", "Address": "1766 Old Stage Road", "ZipCode": "52101", "FoodWaste": null, "Feedstock": "wastewater solids", "Source": "Water Environment Federation- http://www.resourcerecoverydata.org/biogasdata.php", "ADid": "AD881", "LocApprox": false}}, {"type": "Feature", "geometry": {"type": "Point", "coordinates": [-95.38251529, 42.00974788]}, "properties": {"facName": "Denison Municipal Utilities - WWTP", "CityName": "Denison", "countyName": "Crawford", "FacilityType": "Water Resource Recovery Facility", "Address": "2360 Arrowhead Dr.", "ZipCode": "51442", "FoodWaste": null, "Feedstock": "wastewater solids", "Source": "Water Environment Federation- http://www.resourcerecoverydata.org/biogasdata.php", "ADid": "AD888", "LocApprox": false}}, {"type": "Feature", "geometry": {"type": "Point", "coordinates": [-93.55740498, 41.57319398]}, "properties": {"facName": "Des Moines Metro WRA", "CityName": "Des Moines", "countyName": "Polk", "FacilityType": "Water Resource Recovery Facility", "Address": "3000 Vandalia Road", "ZipCode": "50317", "FoodWaste": "Yes", "Feedstock": "Wastewater solids, Food waste, Beverage processing industry waste, Crude glycerin, De-icing fluid, Fats, oils and greases (FOG), Food processing industry waste, Food service waste, pre & post-consumer, Lab (or Pharma) wastes, Rendering wastes", "Source": "AD Data Collection Project - WRRF", "ADid": "AD891", "LocApprox": false}}, {"type": "Feature", "geometry": {"type": "Point", "coordinates": [-90.53946796, 41.81011698]}, "properties": {"facName": "DEWITT CITY OF STP", "CityName": "Dewitt", "countyName": "Clinton", "FacilityType": "Water Resource Recovery Facility", "Address": "511 South 6th Ave.", "ZipCode": "52742", "FoodWaste": null, "Feedstock": "wastewater solids", "Source": "Water Environment Federation- http://www.resourcerecoverydata.org/biogasdata.php", "ADid": "AD894", "LocApprox": false}}, {"type": "Feature", "geometry": {"type": "Point", "coordinates": [-90.65213261, 42.47095035]}, "properties": {"facName": "Dubuque Water & Resource Recovery Center", "CityName": "Dubuque", "countyName": "Dubuque", "FacilityType": "Water Resource Recovery Facility", "Address": "765 Julien Dubuque Drive", "ZipCode": "52003", "FoodWaste": "Yes", "Feedstock": "Wastewater solids, Food waste, Fats, oils and greases (FOG), Food processing industry waste, Wastewater solids from other WRRFs", "Source": "AD Data Collection Project - WRRF", "ADid": "AD904", "LocApprox": false}}, {"type": "Feature", "geometry": {"type": "Point", "coordinates": [-93.9147621, 42.65446271]}, "properties": {"facName": "EAGLE GROVE, CITY OF STP", "CityName": "Eagle Grove", "countyName": "Wright", "FacilityType": "Water Resource Recovery Facility", "Address": "1342 SW 9TH STREET", "ZipCode": "50533", "FoodWaste": null, "Feedstock": "wastewater solids", "Source": "Water Environment Federation- http://www.resourcerecoverydata.org/biogasdata.php", "ADid": "AD913", "LocApprox": false}}, {"type": "Feature", "geometry": {"type": "Point", "coordinates": [-94.81482699, 43.37498398]}, "properties": {"facName": "ESTHERVILLE CITY OF STP", "CityName": "Estherville", "countyName": "Emmet", "FacilityType": "Water Resource Recovery Facility", "Address": "1878 HIGHWAY 4", "ZipCode": "51334", "FoodWaste": null, "Feedstock": "wastewater solids", "Source": "Water Environment Federation- http://www.resourcerecoverydata.org/biogasdata.php", "ADid": "AD955", "LocApprox": false}}, {"type": "Feature", "geometry": {"type": "Point", "coordinates": [-91.945768, 40.97914399]}, "properties": {"facName": "FAIRFIELD CITY OF STP", "CityName": "Fairfield", "countyName": "Jefferson", "FacilityType": "Water Resource Recovery Facility", "Address": "2275 MARIGOLD BLVD", "ZipCode": "52556", "FoodWaste": null, "Feedstock": "wastewater solids", "Source": "Water Environment Federation- http://www.resourcerecoverydata.org/biogasdata.php", "ADid": "AD964", "LocApprox": false}}, {"type": "Feature", "geometry": {"type": "Point", "coordinates": [-94.18275757, 42.48681973]}, "properties": {"facName": "FORT DODGE CITY OF STP", "CityName": "Fort Dodge", "countyName": "Webster", "FacilityType": "Water Resource Recovery Facility", "Address": "1801 AVE O", "ZipCode": "50501", "FoodWaste": null, "Feedstock": "wastewater solids", "Source": "Water Environment Federation- http://www.resourcerecoverydata.org/biogasdata.php", "ADid": "AD987", "LocApprox": false}}, {"type": "Feature", "geometry": {"type": "Point", "coordinates": [-95.77072098, 41.0075149]}, "properties": {"facName": "GMU WASTEWATER TREATMENT FACILITY", "CityName": "Glenwood", "countyName": "Mills", "FacilityType": "Water Resource Recovery Facility", "Address": "60506 KESTERSON RD.", "ZipCode": "51561", "FoodWaste": null, "Feedstock": "wastewater solids", "Source": "Water Environment Federation- http://www.resourcerecoverydata.org/biogasdata.php", "ADid": "AD1031", "LocApprox": false}}, {"type": "Feature", "geometry": {"type": "Point", "coordinates": [-94.45611348, 41.2980271]}, "properties": {"facName": "GREENFIELD WASTE WATER PLANT", "CityName": "Greenfield", "countyName": "Adair", "FacilityType": "Water Resource Recovery Facility", "Address": "601 SOUTHEAST 4TH STREET", "ZipCode": "50849", "FoodWaste": null, "Feedstock": "wastewater solids", "Source": "Water Environment Federation- http://www.resourcerecoverydata.org/biogasdata.php", "ADid": "AD1049", "LocApprox": false}}, {"type": "Feature", "geometry": {"type": "Point", "coordinates": [-93.58107197, 41.3877576]}, "properties": {"facName": "INDIANOLA CITY OF STP (NORTH)", "CityName": "Indianola", "countyName": "Warren", "FacilityType": "Water Resource Recovery Facility", "Address": "11870 Hoover Street", "ZipCode": "50125", "FoodWaste": null, "Feedstock": "wastewater solids", "Source": "Water Environment Federation- http://www.resourcerecoverydata.org/biogasdata.php", "ADid": "AD1119", "LocApprox": false}}, {"type": "Feature", "geometry": {"type": "Point", "coordinates": [-91.50443834, 41.60889636]}, "properties": {"facName": "IOWA CITY CITY OF SOUTH STP", "CityName": "Iowa City", "countyName": "Johnson", "FacilityType": "Water Resource Recovery Facility", "Address": "4366 NAPOLEON ST. SE", "ZipCode": "52240", "FoodWaste": null, "Feedstock": "wastewater solids", "Source": "Water Environment Federation- http://www.resourcerecoverydata.org/biogasdata.php", "ADid": "AD1121", "LocApprox": false}}, {"type": "Feature", "geometry": {"type": "Point", "coordinates": [-93.25309696, 42.51973301]}, "properties": {"facName": "IOWA FALLS CITY OF STP", "CityName": "Iowa Falls", "countyName": "Hardin", "FacilityType": "Water Resource Recovery Facility", "Address": "212 HOLLIS AVENUE", "ZipCode": "50126", "FoodWaste": null, "Feedstock": "wastewater solids", "Source": "Water Environment Federation- http://www.resourcerecoverydata.org/biogasdata.php", "ADid": "AD1122", "LocApprox": false}}, {"type": "Feature", "geometry": {"type": "Point", "coordinates": [-95.13794198, 43.34055498]}, "properties": {"facName": "IOWA GREAT LAKES WWTP", "CityName": "Milford", "countyName": "Dickinson", "FacilityType": "Water Resource Recovery Facility", "Address": "303 28th Street", "ZipCode": "51351", "FoodWaste": null, "Feedstock": "wastewater solids", "Source": "Water Environment Federation- http://www.resourcerecoverydata.org/biogasdata.php", "ADid": "AD1316", "LocApprox": false}}, {"type": "Feature", "geometry": {"type": "Point", "coordinates": [-91.38222018, 40.3896672]}, "properties": {"facName": "KEOKUK WWTP", "CityName": "Keokuk", "countyName": "Lee", "FacilityType": "Water Resource Recovery Facility", "Address": "100 Mississippi Drive", "ZipCode": "52632", "FoodWaste": "Yes", "Feedstock": "Wastewater solids, Food waste", "Source": "AD Data Collection Project - WRRF", "ADid": "AD1163", "LocApprox": false}}, {"type": "Feature", "geometry": {"type": "Point", "coordinates": [-93.07781301, 41.32527698]}, "properties": {"facName": "KNOXVILLE CITY OF STP", "CityName": "Knoxville", "countyName": "Marion", "FacilityType": "Water Resource Recovery Facility", "Address": "1703 EAST PLEASANT STREET", "ZipCode": "50138", "FoodWaste": null, "Feedstock": "wastewater solids", "Source": "Water Environment Federation- http://www.resourcerecoverydata.org/biogasdata.php", "ADid": "AD1175", "LocApprox": false}}, {"type": "Feature", "geometry": {"type": "Point", "coordinates": [-96.17861402, 42.799553]}, "properties": {"facName": "LEMARS SEWAGE TREATMENT PLANT", "CityName": "Le Mars", "countyName": "Plymouth", "FacilityType": "Water Resource Recovery Facility", "Address": "705 5th Ave. NW.", "ZipCode": "51031", "FoodWaste": null, "Feedstock": "wastewater solids", "Source": "Water Environment Federation- http://www.resourcerecoverydata.org/biogasdata.php", "ADid": "AD1208", "LocApprox": false}}, {"type": "Feature", "geometry": {"type": "Point", "coordinates": [-92.896134, 42.06597902]}, "properties": {"facName": "MARSHALLTOWN WWTP", "CityName": "Marshalltown", "countyName": "Marshall", "FacilityType": "Water Resource Recovery Facility", "Address": "1001 Woodland Street", "ZipCode": "50158", "FoodWaste": null, "Feedstock": "wastewater solids", "Source": "Water Environment Federation- http://www.resourcerecoverydata.org/biogasdata.php", "ADid": "AD1280", "LocApprox": false}}, {"type": "Feature", "geometry": {"type": "Point", "coordinates": [-93.15428698, 43.13710301]}, "properties": {"facName": "MASON CITY, CITY OF STP", "CityName": "Mason City", "countyName": "Cerro Gordo", "FacilityType": "Water Resource Recovery Facility", "Address": "2950 Birch Drive", "ZipCode": "50401", "FoodWaste": null, "Feedstock": "wastewater solids", "Source": "Water Environment Federation- http://www.resourcerecoverydata.org/biogasdata.php", "ADid": "AD1284", "LocApprox": false}}, {"type": "Feature", "geometry": {"type": "Point", "coordinates": [-91.17341429, 42.23807731]}, "properties": {"facName": "MONTICELLO CITY OF STP", "CityName": "Monticello", "countyName": "Jones", "FacilityType": "Water Resource Recovery Facility", "Address": "1105 EAST FIRST STREET", "ZipCode": "52310", "FoodWaste": null, "Feedstock": "wastewater solids", "Source": "Water Environment Federation- http://www.resourcerecoverydata.org/biogasdata.php", "ADid": "AD1342", "LocApprox": false}}, {"type": "Feature", "geometry": {"type": "Point", "coordinates": [-91.07238702, 41.40787599]}, "properties": {"facName": "MUSCATINE WATER POLLUTION CONTROL PLANT", "CityName": "Muscatine", "countyName": "Muscatine", "FacilityType": "Water Resource Recovery Facility", "Address": "1202 Musser Street", "ZipCode": "52761", "FoodWaste": "Yes", "Feedstock": "Wastewater solids, Food waste", "Source": "AD Data Collection Project - WRRF", "ADid": "AD1358", "LocApprox": false}}, {"type": "Feature", "geometry": {"type": "Point", "coordinates": [-92.31407156, 43.04825]}, "properties": {"facName": "NEW HAMPTON CITY OF STP", "CityName": "New Hampton", "countyName": "Chickasaw", "FacilityType": "Water Resource Recovery Facility", "Address": "800 SOUTH LOCUST AVENUE", "ZipCode": "50659", "FoodWaste": null, "Feedstock": "wastewater solids", "Source": "Water Environment Federation- http://www.resourcerecoverydata.org/biogasdata.php", "ADid": "AD1373", "LocApprox": false}}, {"type": "Feature", "geometry": {"type": "Point", "coordinates": [-92.65778201, 41.27026999]}, "properties": {"facName": "OSKALOOSA CITY OF STP (SOUTHWE", "CityName": "Oskaloosa", "countyName": "Mahaska", "FacilityType": "Water Resource Recovery Facility", "Address": "2632 KENT AVENUE", "ZipCode": "52577", "FoodWaste": null, "Feedstock": "wastewater solids", "Source": "Water Environment Federation- http://www.resourcerecoverydata.org/biogasdata.php", "ADid": "AD1427", "LocApprox": false}}, {"type": "Feature", "geometry": {"type": "Point", "coordinates": [-92.38504796, 41.00292198]}, "properties": {"facName": "OTTUMWA WWTP", "CityName": "Ottumwa", "countyName": "Wapello", "FacilityType": "Water Resource Recovery Facility", "Address": "2222 South Emma Street", "ZipCode": "52501", "FoodWaste": null, "Feedstock": "wastewater solids", "Source": "Water Environment Federation- http://www.resourcerecoverydata.org/biogasdata.php", "ADid": "AD1429", "LocApprox": false}}, {"type": "Feature", "geometry": {"type": "Point", "coordinates": [-92.91943997, 41.37620099]}, "properties": {"facName": "PELLA CITY OF STP", "CityName": "Pella", "countyName": "Marion", "FacilityType": "Water Resource Recovery Facility", "Address": "2269 Illinois Drive", "ZipCode": "50219", "FoodWaste": null, "Feedstock": "wastewater solids", "Source": "Water Environment Federation- http://www.resourcerecoverydata.org/biogasdata.php", "ADid": "AD1448", "LocApprox": false}}, {"type": "Feature", "geometry": {"type": "Point", "coordinates": [-95.23896006, 41.0055317]}, "properties": {"facName": "RED OAK CITY OF STP", "CityName": "Red Oak", "countyName": "Montgomery", "FacilityType": "Water Resource Recovery Facility", "Address": "213 A ST.", "ZipCode": "51566", "FoodWaste": null, "Feedstock": "wastewater solids", "Source": "Water Environment Federation- http://www.resourcerecoverydata.org/biogasdata.php", "ADid": "AD1514", "LocApprox": false}}, {"type": "Feature", "geometry": {"type": "Point", "coordinates": [-95.39517496, 40.766714]}, "properties": {"facName": "SHENANDOAH CITY OF STP", "CityName": "Shenandoah", "countyName": "Fremont", "FacilityType": "Water Resource Recovery Facility", "Address": "4148 190TH STREET", "ZipCode": "51601", "FoodWaste": null, "Feedstock": "wastewater solids", "Source": "Water Environment Federation- http://www.resourcerecoverydata.org/biogasdata.php", "ADid": "AD1612", "LocApprox": false}}, {"type": "Feature", "geometry": {"type": "Point", "coordinates": [-96.15141206, 43.05523761]}, "properties": {"facName": "SIOUX CENTER WWTP", "CityName": "Sioux Center", "countyName": "Sioux", "FacilityType": "Water Resource Recovery Facility", "Address": "3220 410TH STREET", "ZipCode": "51250", "FoodWaste": null, "Feedstock": "wastewater solids", "Source": "Water Environment Federation- http://www.resourcerecoverydata.org/biogasdata.php", "ADid": "AD1620", "LocApprox": false}}, {"type": "Feature", "geometry": {"type": "Point", "coordinates": [-96.37356301, 42.45500301]}, "properties": {"facName": "SIOUX CITY WWTP", "CityName": "Sioux City", "countyName": "Woodbury", "FacilityType": "Water Resource Recovery Facility", "Address": "3100 SOUTH LEWIS BOULEVARD", "ZipCode": "51106", "FoodWaste": "Yes", "Feedstock": "Wastewater solids, Food waste", "Source": "AD Data Collection Project - WRRF", "ADid": "AD1621", "LocApprox": false}}, {"type": "Feature", "geometry": {"type": "Point", "coordinates": [-95.13168481, 43.12882092]}, "properties": {"facName": "SPENCER CITY OF STP", "CityName": "Spencer", "countyName": "Clay", "FacilityType": "Water Resource Recovery Facility", "Address": "400 10th Ave. SE.", "ZipCode": "51301", "FoodWaste": null, "Feedstock": "wastewater solids", "Source": "Water Environment Federation- http://www.resourcerecoverydata.org/biogasdata.php", "ADid": "AD1638", "LocApprox": false}}, {"type": "Feature", "geometry": {"type": "Point", "coordinates": [-91.47342762, 43.2606982]}, "properties": {"facName": "WAUKON CITY OF STP", "CityName": "Waukon", "countyName": "Allamakee", "FacilityType": "Water Resource Recovery Facility", "Address": "740 ROSSVILLE ROAD", "ZipCode": "52172", "FoodWaste": null, "Feedstock": "wastewater solids", "Source": "Water Environment Federation- http://www.resourcerecoverydata.org/biogasdata.php", "ADid": "AD1783", "LocApprox": false}}, {"type": "Feature", "geometry": {"type": "Point", "coordinates": [-93.8119759, 42.45958993]}, "properties": {"facName": "WEBSTER CITY CITY OF STP", "CityName": "Webster City", "countyName": "Hamilton", "FacilityType": "Water Resource Recovery Facility", "Address": "101 EAST OHIO STREET", "ZipCode": "50595", "FoodWaste": null, "Feedstock": "wastewater solids", "Source": "Water Environment Federation- http://www.resourcerecoverydata.org/biogasdata.php", "ADid": "AD1795", "LocApprox": false}}]}