{"type": "FeatureCollection", "features": [{"type": "Feature", "geometry": {"type": "Point", "coordinates": [-1.7976931348623157e+308, -1.7976931348623157e+308]}, "properties": {"LandfillNa": "City of Muscatine LF", "City": "Stockton", "Status": "Open", "TotWst_ton": 1212640.0}}, {"type": "Feature", "geometry": {"type": "Point", "coordinates": [-1.7976931348623157e+308, -1.7976931348623157e+308]}, "properties": {"LandfillNa": "Ft. Dodge LF", "City": "Ft. Dodge", "Status": "Unknown", "TotWst_ton": 1000000.0}}, {"type": "Feature", "geometry": {"type": "Point", "coordinates": [-95.90679, 41.241]}, "properties": {"LandfillNa": "Oak Ridge Landfill", "City": "Council Bluffs", "Status": "Open", "TotWst_ton": -10000000000.0}}, {"type": "Feature", "geometry": {"type": "Point", "coordinates": [-1.7976931348623157e+308, -1.7976931348623157e+308]}, "properties": {"LandfillNa": "Van Buren County SLF", "City": "Douds", "Status": "Closed", "TotWst_ton": 104866.0}}]}